@type,streetAddress,addressLocality,addressRegion,postalCode,addressCountry,URL,Name,State
PostalAddress,145 Great Rd,Acton,MA,01720,US,https://locations.traderjoes.com/ma/acton/,Trader Joe&#x27;s Acton (511),Ma - Massachusetts
PostalAddress,199 North Harvard Street,Allston,MA,02134,US,https://locations.traderjoes.com/ma/allston/,Trader Joe&#x27;s Allston (561),Ma - Massachusetts
PostalAddress,1427 Massachusetts Ave,Arlington,MA,02476,US,https://locations.traderjoes.com/ma/arlington/,Trader Joe&#x27;s Arlington (505),Ma - Massachusetts
PostalAddress,500 Boylston St,Boston,MA,02116,US,https://locations.traderjoes.com/ma/boston/,Trader Joe&#x27;s Boston (Boylston St) (500),Ma - Massachusetts
PostalAddress,1317 Beacon St,Brookline,MA,02446,US,https://locations.traderjoes.com/ma/brookline/,Trader Joe&#x27;s Brookline (501),Ma - Massachusetts
PostalAddress,51 Middlesex Turnpike,Burlington,MA,01803,US,https://locations.traderjoes.com/ma/burlington/,Trader Joe&#x27;s Burlington (515),Ma - Massachusetts
PostalAddress,748 Memorial Dr,Cambridge,MA,02139,US,https://locations.traderjoes.com/ma/cambridge/,Trader Joe&#x27;s Cambridge (502),Ma - Massachusetts
PostalAddress,350 Patriot Place,Foxborough,MA,02035,US,https://locations.traderjoes.com/ma/foxborough/,Trader Joe&#x27;s Foxborough - Patriot Place (528),Ma - Massachusetts
PostalAddress,659 Worcester Rd,Framingham,MA,01701,US,https://locations.traderjoes.com/ma/framingham/,Trader Joe&#x27;s Framingham (503),Ma - Massachusetts
PostalAddress,375 Russell St,Hadley,MA,01035,US,https://locations.traderjoes.com/ma/hadley/,Trader Joe&#x27;s Hadley (512),Ma - Massachusetts
PostalAddress,1775 Washington St,Hanover,MA,02339,US,https://locations.traderjoes.com/ma/hanover/,Trader Joe&#x27;s Hanover (513),Ma - Massachusetts
PostalAddress,5 Essington Drive,Hingham,MA,02043,US,https://locations.traderjoes.com/ma/hingham/,Trader Joe&#x27;s Hingham (530),Ma - Massachusetts
PostalAddress,655 Iyannough Road Rt 132,Hyannis,MA,02601,US,https://locations.traderjoes.com/ma/hyannis/,Trader Joe&#x27;s Hyannis (514),Ma - Massachusetts
PostalAddress,230 Fortune Blvd,Milford,MA,01757,US,https://locations.traderjoes.com/ma/milford/,Trader Joe&#x27;s Milford (582),Ma - Massachusetts
PostalAddress,958 Highland Ave,Needham,MA,02494,US,https://locations.traderjoes.com/ma/needham/,Trader Joe&#x27;s Needham Heights (504),Ma - Massachusetts
PostalAddress,300 Andover St,Peabody,MA,01960,US,https://locations.traderjoes.com/ma/peabody/,Trader Joe&#x27;s Peabody (516),Ma - Massachusetts
PostalAddress,358 Broadway,Saugus,MA,01906,US,https://locations.traderjoes.com/ma/saugus/,Trader Joe&#x27;s Saugus (506),Ma - Massachusetts
PostalAddress,77 Boston Turnpike,Shrewsbury,MA,01545,US,https://locations.traderjoes.com/ma/shrewsbury/,Trader Joe&#x27;s Shrewsbury (508),Ma - Massachusetts
PostalAddress,145 Middlesex Ave,Somerville,MA,02145,US,https://locations.traderjoes.com/ma/somerville/,Trader Joe&#x27;s Somerville (560),Ma - Massachusetts
PostalAddress,1121 Washington St,West Newton,MA,02465,US,https://locations.traderjoes.com/ma/west-newton/,Trader Joe&#x27;s West Newton (509),Ma - Massachusetts
